{
  "norad_id": 63927,
  "name": "STARLINK-33956",
  "history": [
    {
      "epoch": "2026-03-28T18:23:15.328896Z",
      "apogee_km": 581.6662607223107,
      "perigee_km": 575.4201358394821,
      "latitude_deg": 4.4421445655543116e-05,
      "longitude_deg": 124.20725826060546,
      "height_km": 583.0383672683423,
      "semi_major_axis_km": 6956.680198280897,
      "eccentricity": 0.00044893,
      "inclination_deg": 70.0014,
      "raan_deg": 226.203,
      "arg_perigee_deg": 131.727,
      "mean_anomaly_deg": 228.4273,
      "mean_motion_rev_day": 14.96234634
    },
    {
      "epoch": "2026-03-29T04:00:01.999584Z",
      "apogee_km": 573.9867202082896,
      "perigee_km": 570.2724977324569,
      "latitude_deg": 4.02500921490727,
      "longitude_deg": -19.93779133503622,
      "height_km": 574.3337794326073,
      "semi_major_axis_km": 6950.266608970373,
      "eccentricity": 0.0002672,
      "inclination_deg": 70.0003,
      "raan_deg": 225.1877,
      "arg_perigee_deg": 267.7709,
      "mean_anomaly_deg": 96.5713,
      "mean_motion_rev_day": 14.98306162
    },
    {
      "epoch": "2026-03-29T08:00:01.999872Z",
      "apogee_km": 573.9693870389119,
      "perigee_km": 570.2066742118323,
      "latitude_deg": -2.9841359679498076,
      "longitude_deg": 99.09943887289892,
      "height_km": 574.7008760813242,
      "semi_major_axis_km": 6950.225030625372,
      "eccentricity": 0.00027069,
      "inclination_deg": 70.0004,
      "raan_deg": 224.7675,
      "arg_perigee_deg": 265.5081,
      "mean_anomaly_deg": 277.5629,
      "mean_motion_rev_day": 14.98319607
    },
    {
      "epoch": "2026-03-31T08:51:20.177856Z",
      "apogee_km": 573.9709237085362,
      "perigee_km": 570.1205224799414,
      "latitude_deg": 3.673223564319706e-05,
      "longitude_deg": -101.94641659069927,
      "height_km": 574.4728399351286,
      "semi_major_axis_km": 6950.182723094238,
      "eccentricity": 0.000277,
      "inclination_deg": 70.0017,
      "raan_deg": 219.635,
      "arg_perigee_deg": 270.0068,
      "mean_anomaly_deg": 90.0774,
      "mean_motion_rev_day": 14.98333288
    },
    {
      "epoch": "2026-04-01T20:00:01.999008Z",
      "apogee_km": 574.1559491585112,
      "perigee_km": 569.9344085030898,
      "latitude_deg": -22.050207234553096,
      "longitude_deg": 77.31335352395818,
      "height_km": 578.778804521019,
      "semi_major_axis_km": 6950.182178830801,
      "eccentricity": 0.0003037,
      "inclination_deg": 70.0015,
      "raan_deg": 215.9428,
      "arg_perigee_deg": 276.1001,
      "mean_anomaly_deg": 60.5625,
      "mean_motion_rev_day": 14.98333464
    },
    {
      "epoch": "2026-04-02T20:08:18.011040Z",
      "apogee_km": 573.9976995521229,
      "perigee_km": 570.032498776508,
      "latitude_deg": 5.979130866951925e-05,
      "longitude_deg": 80.15016759091783,
      "height_km": 574.3684646589281,
      "semi_major_axis_km": 6950.152099164315,
      "eccentricity": 0.00028526,
      "inclination_deg": 70.0024,
      "raan_deg": 213.4072,
      "arg_perigee_deg": 272.1422,
      "mean_anomaly_deg": 87.9411,
      "mean_motion_rev_day": 14.98343191
    },
    {
      "epoch": "2026-04-03T16:58:13.490976Z",
      "apogee_km": 574.7585750786066,
      "perigee_km": 570.4268803123068,
      "latitude_deg": 3.0069368822196416e-05,
      "longitude_deg": 124.62824745670297,
      "height_km": 573.0696056258629,
      "semi_major_axis_km": 6950.729727695456,
      "eccentricity": 0.0003116,
      "inclination_deg": 70.0071,
      "raan_deg": 211.222,
      "arg_perigee_deg": 334.1298,
      "mean_anomaly_deg": 25.9705,
      "mean_motion_rev_day": 14.98156419
    },
    {
      "epoch": "2026-04-04T17:00:06.200640Z",
      "apogee_km": 574.0192594525124,
      "perigee_km": 569.697752246976,
      "latitude_deg": -3.706761097916971e-05,
      "longitude_deg": 120.64396810502522,
      "height_km": 573.5260422509721,
      "semi_major_axis_km": 6949.995505849744,
      "eccentricity": 0.0003109,
      "inclination_deg": 70.003,
      "raan_deg": 208.6943,
      "arg_perigee_deg": 290.5932,
      "mean_anomaly_deg": 69.4893,
      "mean_motion_rev_day": 14.98393831
    },
    {
      "epoch": "2026-04-05T13:49:49.219968Z",
      "apogee_km": 574.2919508670193,
      "perigee_km": 569.753913440918,
      "latitude_deg": -4.3044564198056414e-05,
      "longitude_deg": 165.17101654820263,
      "height_km": 574.2428352792738,
      "semi_major_axis_km": 6950.159932153968,
      "eccentricity": 0.00032647,
      "inclination_deg": 70.002,
      "raan_deg": 206.506,
      "arg_perigee_deg": 275.2577,
      "mean_anomaly_deg": 84.8209,
      "mean_motion_rev_day": 14.98340658
    },
    {
      "epoch": "2026-04-05T17:02:05.503488Z",
      "apogee_km": 574.2828222737307,
      "perigee_km": 569.7943988644247,
      "latitude_deg": -2.7355299805328788e-05,
      "longitude_deg": 116.63506889682434,
      "height_km": 574.3785943886107,
      "semi_major_axis_km": 6950.175610569077,
      "eccentricity": 0.0003229,
      "inclination_deg": 70.0031,
      "raan_deg": 206.1695,
      "arg_perigee_deg": 272.2449,
      "mean_anomaly_deg": 87.834,
      "mean_motion_rev_day": 14.98335588
    },
    {
      "epoch": "2026-04-06T01:02:45.761280Z",
      "apogee_km": 574.2423118171164,
      "perigee_km": 569.8129718908622,
      "latitude_deg": 7.0085102312181705e-06,
      "longitude_deg": -4.702567677392893,
      "height_km": 574.4184013610676,
      "semi_major_axis_km": 6950.1646418539885,
      "eccentricity": 0.00031865,
      "inclination_deg": 70.0012,
      "raan_deg": 205.3286,
      "arg_perigee_deg": 270.9564,
      "mean_anomaly_deg": 89.123,
      "mean_motion_rev_day": 14.98339135
    },
    {
      "epoch": "2026-04-07T13:53:50.570592Z",
      "apogee_km": 574.1550629691665,
      "perigee_km": 569.8986436221312,
      "latitude_deg": -1.900135919602249e-05,
      "longitude_deg": 157.1429494486396,
      "height_km": 574.4138349668867,
      "semi_major_axis_km": 6950.163853295649,
      "eccentricity": 0.00030621,
      "inclination_deg": 70.0022,
      "raan_deg": 201.4576,
      "arg_perigee_deg": 271.0957,
      "mean_anomaly_deg": 88.9851,
      "mean_motion_rev_day": 14.9833939
    },
    {
      "epoch": "2026-04-07T17:06:06.706368Z",
      "apogee_km": 574.2258220373869,
      "perigee_km": 569.8347063598667,
      "latitude_deg": 8.163113429727778e-05,
      "longitude_deg": 108.60754967431771,
      "height_km": 574.4041454146903,
      "semi_major_axis_km": 6950.167264198627,
      "eccentricity": 0.0003159,
      "inclination_deg": 70.002,
      "raan_deg": 201.121,
      "arg_perigee_deg": 271.4058,
      "mean_anomaly_deg": 88.674,
      "mean_motion_rev_day": 14.98338287
    },
    {
      "epoch": "2026-04-08T13:55:51.581568Z",
      "apogee_km": 574.1611558990071,
      "perigee_km": 569.9143211267865,
      "latitude_deg": 8.038806269407089e-05,
      "longitude_deg": 153.1280445335883,
      "height_km": 574.5367479500065,
      "semi_major_axis_km": 6950.1747385128965,
      "eccentricity": 0.00030552,
      "inclination_deg": 70.0023,
      "raan_deg": 198.9339,
      "arg_perigee_deg": 268.075,
      "mean_anomaly_deg": 92.006,
      "mean_motion_rev_day": 14.9833587
    },
    {
      "epoch": "2026-04-09T12:21:52.511040Z",
      "apogee_km": 572.8788813928113,
      "perigee_km": 571.086445531605,
      "latitude_deg": -9.784557832431478e-06,
      "longitude_deg": 173.3429214371257,
      "height_km": 574.3141706113358,
      "semi_major_axis_km": 6950.119663462208,
      "eccentricity": 0.00012895,
      "inclination_deg": 70.0057,
      "raan_deg": 196.574,
      "arg_perigee_deg": 276.0504,
      "mean_anomaly_deg": 84.0508,
      "mean_motion_rev_day": 14.9835368
    },
    {
      "epoch": "2026-04-10T05:59:27.577536Z",
      "apogee_km": 574.5094351094067,
      "perigee_km": 570.1539933943086,
      "latitude_deg": 1.3389748976035263e-06,
      "longitude_deg": -93.63057777122827,
      "height_km": 574.738978717252,
      "semi_major_axis_km": 6950.468714251857,
      "eccentricity": 0.00031332,
      "inclination_deg": 70.0058,
      "raan_deg": 194.7205,
      "arg_perigee_deg": 270.5429,
      "mean_anomaly_deg": 89.5371,
      "mean_motion_rev_day": 14.98240811
    },
    {
      "epoch": "2026-04-11T20:00:01.000224Z",
      "apogee_km": 574.298875303195,
      "perigee_km": 569.670094394286,
      "latitude_deg": -68.30369915094123,
      "longitude_deg": -63.84586565846709,
      "height_km": 594.801527100855,
      "semi_major_axis_km": 6950.121484848741,
      "eccentricity": 0.000333,
      "inclination_deg": 70.0008,
      "raan_deg": 190.7321,
      "arg_perigee_deg": 272.3078,
      "mean_anomaly_deg": 348.805,
      "mean_motion_rev_day": 14.98353091
    },
    {
      "epoch": "2026-04-13T04:29:22.908480Z",
      "apogee_km": 573.347707970137,
      "perigee_km": 572.3966708928392,
      "latitude_deg": 5.346531443327654e-05,
      "longitude_deg": -81.40698710629881,
      "height_km": 574.871935330732,
      "semi_major_axis_km": 6951.009189431488,
      "eccentricity": 6.841e-05,
      "inclination_deg": 70.0031,
      "raan_deg": 187.3199,
      "arg_perigee_deg": 333.1926,
      "mean_anomaly_deg": 26.9198,
      "mean_motion_rev_day": 14.98066071
    },
    {
      "epoch": "2026-04-14T14:07:57.026208Z",
      "apogee_km": 574.4090638254693,
      "perigee_km": 569.6704333182925,
      "latitude_deg": 3.646966684747116e-05,
      "longitude_deg": 129.03408977964546,
      "height_km": 574.3842371269196,
      "semi_major_axis_km": 6950.17674857188,
      "eccentricity": 0.0003409,
      "inclination_deg": 70.002,
      "raan_deg": 183.7848,
      "arg_perigee_deg": 272.0194,
      "mean_anomaly_deg": 88.0575,
      "mean_motion_rev_day": 14.9833522
    }
  ]
}